{
  "norad_id": 68356,
  "name": "CENTISPACE-1 OBJECT G",
  "history": [
    {
      "epoch": "2026-03-28T22:30:37.971936",
      "apogee_km": 654.0244232539462,
      "perigee_km": 634.2889690502798,
      "latitude_deg": -13.606245349366018,
      "longitude_deg": 25.642191040096804,
      "semi_major_axis_km": 7022.293696152113,
      "eccentricity": 0.0014052,
      "inclination_deg": 54.9926,
      "raan_deg": 3.0806,
      "arg_perigee_deg": 316.4035,
      "mean_anomaly_deg": 43.5854,
      "mean_motion_rev_day": 14.7531337
    }
  ]
}